STARLINK-31973          
1 59943U 24106X   26068.12201786 -.00001228  00000+0 -35144-4 0  9997
2 59943  43.0021 335.9351 0000602 246.2423 113.8366 15.27567779100434
2025-313BD              
1 67299U 25313BD  26068.62968741  .00081010  00000+0  27634-2 0  9995
2 67299  97.3970 145.2850 0007287 333.4514  26.6352 15.30002360 10838
